HRC MONOBLOCK CAMERA    
1 66052U 98067XR  26074.90392936  .00048968  00000+0  53289-3 0  9993
2 66052  51.6280  34.1527 0003788 120.0047 240.1323 15.62929545 23362
HTV-X1                  
1 66174U 25241A   26073.34423291  .00013614  00000+0  58534-3 0  9996
2 66174  51.6357  50.7100 0005742 187.4106 172.6788 15.22910308 21666
SZ-21 MODULE            
1 66515U 25246C   26074.61177792  .00034609  00000+0  29227-3 0  9997
2 66515  41.4740 166.8918 0000819 310.4718  49.6052 15.69044572 19005
SHENZHOU-22             
1 66645U 25272A   26074.66617283  .00022966  00000+0  26860-3 0  9992
2 66645  41.4669 171.7890 0006367 308.3503  51.6764 15.61005371267526
SOYUZ-MS 28             
1 66664U 25275A   26074.83790868  .00008038  00000+0  15762-3 0  9999
2 66664  51.6331  41.9615 0006336 194.9995 165.0806 15.48299420554520
DUPLEX                  
1 66906U 98067XS  26074.62160253  .00028497  00000+0  39788-3 0  9998
2 66906  51.6294  39.7700 0002794 138.5108 221.6097 15.56634012 16052
ISS OBJECT XT           
1 66907U 98067XT  26074.05627168  .00202137  00000+0  15333-2 0  9993
2 66907  51.6247  38.2251 0004688 115.4311 244.7173 15.71174897 16025
ISS OBJECT XU           
1 66908U 98067XU  26074.05401917  .00202702  00000+0  15285-2 0  9990
2 66908  51.6248  38.2054 0004987 118.2627 241.8875 15.71313389 16029
SILVERSAT               
1 66909U 98067XV  26074.86949331  .00243760  00000+0  15562-2 0  9994
2 66909  51.6239  33.1479 0005544 121.3817 238.7725 15.75078885 16168
ISS OBJECT XW           
1 66910U 98067XW  26074.18095813  .00173075  00000+0  13629-2 0  9991
2 66910  51.6239  37.5499 0005353 120.8061 239.3464 15.70370803 16047
ISS OBJECT XX           
1 66911U 98067XX  26074.91592794  .00318840  00000+0  16863-2 0  9997
2 66911  51.6205  31.9337 0007025 127.0108 233.1537 15.79102895 16179
ISS OBJECT XY           
1 66912U 98067XY  26074.90600614  .00093849  00000+0  93179-3 0  9993
2 66912  51.6266  35.6624 0003508 126.1583 233.9737 15.64986449 16120
